INTELSAT 9 (IS-9)       
1 26451U 00043A   25124.88447737 -.00000020  00000+0  00000+0 0  9998
2 26451   9.4909  52.8878 0004024   1.4941 193.2675  1.00272374 40045
INTELSAT 10 (IS-10)     
1 26766U 01019A   25124.89690993 -.00000015  00000+0  00000+0 0  9990
2 26766   8.0996  63.4141 0004150 332.5966 215.9886  1.00272864 87839
INTELSAT 901 (IS-901)   
1 26824U 01024A   25124.95067265 -.00000268  00000+0  00000+0 0  9998
2 26824   0.1865  93.8366 0002775 314.2429 311.9397  0.98807202 87492
INTELSAT 902 (IS-902)   
1 26900U 01039A   25122.37683775 -.00000291  00000+0  00000+0 0  9999
2 26900   5.0781  76.7909 0004492 321.2191 268.1076  1.00271085 86576
INTELSAT 904 (IS-904)   
1 27380U 02007A   25125.24003135 -.00000220  00000+0  00000+0 0  9995
2 27380   5.8993  74.0581 0003086 336.2409 229.9559  1.00270694 84995
DIRECTV 5 (TEMPO 1)     
1 27426U 02023A   25124.86198406 -.00000064  00000+0  00000+0 0  9993
2 27426   3.8339  80.4120 0003260 324.5971  18.1691  1.00271447 84022
INTELSAT 905 (IS-905)   
1 27438U 02027A   25125.49949329  .00000094  00000+0  00000+0 0  9990
2 27438   5.7286  74.6956 0002992 322.2671 230.6444  1.00151136 83873
GALAXY 3C (G-3C)        
1 27445U 02030A   25124.92490609 -.00000160  00000+0  00000+0 0  9996
2 27445   2.6795  83.1492 0002828  46.0258 331.9867  1.00271751 42406
INTELSAT 906 (IS-906)   
1 27513U 02041A   25124.88447737  .00000006  00000+0  00000+0 0  9991
2 27513   4.7641  77.9512 0003325 341.2709 186.3530  1.00271190 82931
GALAXY 23 (G-23)        
1 27854U 03034A   25125.58160616  .00000006  00000+0  00000+0 0  9998
2 27854   2.1432  84.7492 0002693 324.8851 262.5660  1.00271989 84461
GALAXY 13 (HORIZONS-1)  
1 27954U 03044A   25124.54968259  .00000123  00000+0  00000+0 0  9994
2 27954   0.3610  90.3211 0002364 310.1000 230.1405  1.00272537 42474
INTELSAT 10-02          
1 28358U 04022A   25125.16926867 -.00000020  00000+0  00000+0 0  9995
2 28358   0.0406  78.1287 0000888 305.9441 259.1545  1.00270348 76538
XM-3 (RHYTHM)           
1 28626U 05008A   25125.15232700 -.00000208  00000+0  00000+0 0  9991
2 28626   0.0168 277.1455 0001504 274.7621 359.8681  1.00270486 73975
DIRECTV 8               
1 28659U 05019A   25125.21627955 -.00000008  00000+0  00000+0 0  9994
2 28659   0.0145 269.8797 0002918 135.5656 136.7006  1.00272999 73092
GALAXY 28 (G-28)        
1 28702U 05022A   25124.86624119 -.00000195  00000+0  00000+0 0  9993
2 28702   2.2460  84.0128 0001498 308.1115  54.0011  1.00270222 47894
GALAXY 16 (G-16)        
1 29236U 06023A   25125.36433477 -.00000135  00000+0  00000+0 0  9993
2 29236   0.0342 126.5284 0002607 267.0536 222.0491  1.00271451 69179
DIRECTV 9S              
1 29494U 06043A   25125.41503061 -.00000121  00000+0  00000+0 0  9999
2 29494   1.3685  85.8634 0002960 320.3779 225.5066  1.00271885 68018
GALAXY 17 (G-17)        
1 31307U 07016B   25125.44752615 -.00000213  00000+0  00000+0 0  9992
2 31307   1.9405  85.0995 0000233  63.0485 151.5167  1.00272479 65981
DIRECTV 10              
1 31862U 07032A   25124.86346103 -.00000112  00000+0  00000+0 0  9990
2 31862   0.0012 328.0877 0000239 352.5762 110.3778  1.00271774 41498
INTELSAT 11 (IS-11)     
1 32253U 07044B   25124.85129370 -.00000229  00000+0  00000+0 0  9991
2 32253   2.5023  83.7095 0000461  15.2266 192.6094  0.99047672 64403
HORIZONS-2              
1 32388U 07063B   25125.22755904 -.00000261  00000+0  00000+0 0  9997
2 32388   1.5497  85.6946 0001891 312.8215 192.9494  1.00273366 63781
DIRECTV 11              
1 32729U 08013A   25125.58652990 -.00000134  00000+0  00000+0 0  9991
2 32729   0.0451  79.8253 0000334 230.5149  25.3295  1.00271691 62857
GALAXY 18 (G-18)        
1 32951U 08024A   25124.56700242  .00000016  00000+0  00000+0 0  9999
2 32951   0.0125 262.6942 0003142 148.5321 252.5828  1.00270036 41753
INTELSAT 25 (IS-25)     
1 33153U 08034A   25125.37405795 -.00000231  00000+0  00000+0 0  9990
2 33153   1.6567  85.3575 0003058 326.0516 275.2398  1.00270786 61547
GALAXY 19 (G-19)        
1 33376U 08045A   25125.22822633 -.00000148  00000+0  00000+0 0  9994
2 33376   0.0022  72.6686 0002711 324.2147 171.6181  1.00272096 60746
FM-5                    
1 35493U 09034A   25125.22267161 -.00000209  00000+0  00000+0 0  9992
2 35493   0.0182 275.9150 0001085 312.1067 349.3331  1.00270769 57886
INTELSAT 14 (IS-14)     
1 36097U 09064A   25125.37961288 -.00000282  00000+0  00000+0 0  9994
2 36097   0.0270  84.1434 0002637 331.5678 259.4548  1.00272056 56608
INTELSAT 15 (IS-15)     
1 36106U 09067A   25124.90073267 -.00000194  00000+0  00000+0 0  9999
2 36106   0.0133 270.0778 0002236 133.6160 228.7468  1.00268819 56507
DIRECTV 12              
1 36131U 09075A   25125.22251564 -.00000113  00000+0  00000+0 0  9991
2 36131   0.0086  91.3420 0000423 254.2131 215.1751  1.00272349 56298
INTELSAT 16 (IS-16)     
1 36397U 10006A   25125.37544743 -.00000253  00000+0  00000+0 0  9996
2 36397   0.0336  64.3658 0002204   8.0174 210.0639  1.00272632 55624
XM-5                    
1 37185U 10053A   25125.35322488 -.00000032  00000+0  00000+0 0  9997
2 37185   0.0302 277.3290 0002467 282.3002  35.8065  1.00272093 53354
INTELSAT 17 (IS-17)     
1 37238U 10065B   25125.13725338 -.00000011  00000+0  00000+0 0  9993
2 37238   0.0174 257.3477 0002681 162.4215 278.8982  1.00272812 52835
INTELSAT 28 (IS-28)     
1 37392U 11016A   25125.37405795 -.00000232  00000+0  00000+0 0  9994
2 37392   0.7523  87.9143 0004440 317.4779 281.0679  1.00274465 51429
INTELSAT 18 (IS-18)     
1 37834U 11056A   25125.49071837  .00000045  00000+0  00000+0 0  9999
2 37834   0.0153 272.5210 0002068 144.4675 163.2726  1.00271856 49754
INTELSAT 22 (IS-22)     
1 38098U 12011A   25124.88447737 -.00000069  00000+0  00000+0 0  9999
2 38098   0.0104 301.0653 0001926 116.5977 195.8586  1.00272224  3091
INTELSAT 19 (IS-19)     
1 38356U 12030A   25125.48793821 -.00000064  00000+0  00000+0 0  9997
2 38356   0.0172 276.0573 0002991 122.8315 166.3730  1.00276266 47423
INTELSAT 20 (IS-20)     
1 38740U 12043A   25124.99767061 -.00000034  00000+0  00000+0 0  9997
2 38740   0.0239 145.0192 0002387  38.2612 107.4972  1.00271395 46730
INTELSAT 21 (IS-21)     
1 38749U 12045A   25125.15797422 -.00000294  00000+0  00000+0 0  9999
2 38749   0.0178 268.2659 0001718 134.2598 179.6266  1.00272094 46547
INTELSAT 23 (IS-23)     
1 38867U 12057A   25125.15892991 -.00000294  00000+0  00000+0 0  9990
2 38867   0.0144 196.6259 0000814 191.2958 199.5739  1.00272983 46015
FM-6                    
1 39360U 13058A   25125.50340291 -.00000025  00000+0  00000+0 0  9993
2 39360   0.0189 290.6337 0000843 212.2984 145.7723  1.00270646 42252
INTELSAT 30 (IS-30)     
1 40271U 14062A   25125.23591227 -.00000159  00000+0  00000+0 0  9997
2 40271   0.0322  52.6504 0000600   0.3777 160.1995  1.00268093 38679
DIRECTV 14              
1 40333U 14078B   25125.58635808 -.00000134  00000+0  00000+0 0  9998
2 40333   0.0185 315.8661 0000241 277.9511 101.7466  1.00271694 38161
DIRECTV 15              
1 40663U 15026A   25125.47937741 -.00000109  00000+0  00000+0 0  9999
2 40663   0.0453  82.8563 0001100 140.6202  69.8221  1.00259096 36449
SKY MEXICO-1            
1 40664U 15026B   25125.15380397 -.00000244  00000+0  00000+0 0  9994
2 40664   0.0289 352.2602 0002538  74.2364 133.3842  1.00271641 36448
INTELSAT 34 (IS-34)     
1 40874U 15039A   25125.38517057 -.00000294  00000+0  00000+0 0  9996
2 40874   0.0150 270.5998 0000734  36.2261 359.8428  1.00274250 35520
INTELSAT 31 (IS-31)     
1 41581U 16035A   25124.41850233 -.00000161  00000+0  00000+0 0  9991
2 41581   0.0143 248.5238 0002236 347.5677  42.0527  1.00272238 32586
INTELSAT 36 (IS-36)     
1 41747U 16053A   25124.99905770 -.00000034  00000+0  00000+0 0  9994
2 41747   0.0119 328.2703 0001384 345.3836 337.6323  1.00272021 31858
INTELSAT 32E (IS-32E)   
1 41945U 17007B   25125.16084127 -.00000278  00000+0  00000+0 0  9998
2 41945   0.0026 256.6829 0000671  60.4914 280.8270  1.00272915 30152
INTELSAT 35E (IS-35E)   
1 42818U 17041A   25125.16257889 -.00000247  00000+0  00000+0 0  9999
2 42818   0.0179 265.6459 0001996 127.4519 214.2206  1.00272539 28717
INTELSAT 37E (IS-37E)   
1 42950U 17059A   25125.13725192 -.00000150  00000+0  00000+0 0  9992
2 42950   0.0139 259.5710 0002472 148.2752 206.8213  1.00269520 27958
AZERSPACE 2 (IS-38)     
1 43632U 18074A   25124.90114238  .00000127  00000+0  00000+0 0  9998
2 43632   0.0185 267.5339 0001401 124.5483 200.4593  1.00270383 24353
HORIZONS-3E             
1 43633U 18074B   25125.48854637 -.00000039  00000+0  00000+0 0  9990
2 43633   0.0282 147.5089 0000840 155.7236 265.2391  1.00271845 24235
AT&T T-16               
1 44333U 19034A   25125.41503061 -.00000124  00000+0  00000+0 0  9995
2 44333   0.0414  84.4565 0000324  94.0675  93.5581  1.00270861 21548
INTELSAT 39 (IS-39)     
1 44476U 19049B   25124.89002955  .00000024  00000+0  00000+0 0  9994
2 44476   0.0139 264.3637 0000473  42.2415 298.7616  1.00269233 21034
GALAXY 30 (G-30)        
1 46114U 20056C   25125.22892075  .00000028  00000+0  00000+0 0  9997
2 46114   0.0057  80.7420 0002067 321.9105 138.1117  1.00273345 17316
GALAXY 33 (G-33)        
1 54026U 22128A   25125.50010145  .00000071  00000+0  00000+0 0  9999
2 54026   0.0126 287.9361 0001796 109.9552 232.7581  1.00272431  9645
GALAXY 34 (G-34)        
1 54027U 22128B   25125.56062453  .00000051  00000+0  00000+0 0  9993
2 54027   0.0185 288.3063 0001511 110.3667 257.8332  1.00272965  9681
GALAXY 31 (G-31)        
1 54243U 22153A   25124.56788635  .00000003  00000+0  00000+0 0  9994
2 54243   0.0122 236.3986 0001001 137.3715 292.3707  1.00272518  3033
GALAXY 32 (G-32)        
1 54244U 22153B   25125.15137132 -.00000181  00000+0  00000+0 0  9999
2 54244   0.0150 249.6526 0001595 214.2953  82.7959  1.00256441  9076
GALAXY 35 (G-35)        
1 54741U 22170A   25124.86537240 -.00000171  00000+0  00000+0 0  9990
2 54741   0.0125 232.5531 0001847 167.6704  41.1824  1.00271326  8799
GALAXY 36 (G-36)        
1 54742U 22170B   25125.15180573 -.00000194  00000+0  00000+0 0  9992
2 54742   0.0139 251.2386 0002612 178.7384 118.9363  1.00272214  8821
GALAXY 37 (G-37)        
1 57493U 23112A   25125.22283255  .00000039  00000+0  00000+0 0  9991
2 57493   0.0441  72.3805 0001955 324.0126 140.1599  1.00271752  6428
